<?xml version="1.0" encoding="UTF-8" standalone="yes"?>
<gpx version="1.1" creator="Mapometer.com" xmlns="http://www.topografix.com/GPX/1/1" xmlns:xsi="http://www.w3.org/2001/XMLSchema-instance" xsi:schemaLocation="http://www.topografix.com/GPX/1/1 http://www.topografix.com/GPX/1/1/gpx.xsd">
<metadata>
<name><![CDATA[Hilly 20k]]></name>
<desc><![CDATA[]]></desc>
<bounds minlat="50.93765" minlon="-1.09677" maxlat="50.99083" maxlon="-1.03884" />
</metadata>
<rte>

<rtept lon="-1.08020" lat="50.93786">
<ele>104.2</ele>
</rtept>
<rtept lon="-1.07953" lat="50.93765">
<ele>101.6</ele>
</rtept>
<rtept lon="-1.07885" lat="50.93797">
<ele>102.1</ele>
</rtept>
<rtept lon="-1.07831" lat="50.93813">
<ele>100.8</ele>
</rtept>
<rtept lon="-1.07739" lat="50.93846">
<ele>95.9</ele>
</rtept>
<rtept lon="-1.07625" lat="50.93920">
<ele>89.2</ele>
</rtept>
<rtept lon="-1.07509" lat="50.93885">
<ele>76.1</ele>
</rtept>
<rtept lon="-1.07506" lat="50.93884">
<ele>76.1</ele>
</rtept>
<rtept lon="-1.07473" lat="50.93903">
<ele>72.9</ele>
</rtept>
<rtept lon="-1.07430" lat="50.93928">
<ele>67.9</ele>
</rtept>
<rtept lon="-1.07423" lat="50.93936">
<ele>67.0</ele>
</rtept>
<rtept lon="-1.07418" lat="50.93941">
<ele>66.5</ele>
</rtept>
<rtept lon="-1.07390" lat="50.93970">
<ele>66.1</ele>
</rtept>
<rtept lon="-1.07367" lat="50.93992">
<ele>66.0</ele>
</rtept>
<rtept lon="-1.07337" lat="50.94024">
<ele>67.9</ele>
</rtept>
<rtept lon="-1.07316" lat="50.94046">
<ele>69.8</ele>
</rtept>
<rtept lon="-1.07304" lat="50.94055">
<ele>70.2</ele>
</rtept>
<rtept lon="-1.07261" lat="50.94101">
<ele>74.0</ele>
</rtept>
<rtept lon="-1.07227" lat="50.94135">
<ele>76.2</ele>
</rtept>
<rtept lon="-1.07207" lat="50.94153">
<ele>77.1</ele>
</rtept>
<rtept lon="-1.07193" lat="50.94165">
<ele>77.7</ele>
</rtept>
<rtept lon="-1.07172" lat="50.94186">
<ele>78.3</ele>
</rtept>
<rtept lon="-1.07121" lat="50.94212">
<ele>78.9</ele>
</rtept>
<rtept lon="-1.07113" lat="50.94216">
<ele>79.1</ele>
</rtept>
<rtept lon="-1.07069" lat="50.94241">
<ele>79.2</ele>
</rtept>
<rtept lon="-1.07067" lat="50.94241">
<ele>79.2</ele>
</rtept>
<rtept lon="-1.07031" lat="50.94253">
<ele>79.5</ele>
</rtept>
<rtept lon="-1.07019" lat="50.94262">
<ele>79.7</ele>
</rtept>
<rtept lon="-1.06942" lat="50.94322">
<ele>80.3</ele>
</rtept>
<rtept lon="-1.06935" lat="50.94329">
<ele>80.4</ele>
</rtept>
<rtept lon="-1.06829" lat="50.94434">
<ele>81.2</ele>
</rtept>
<rtept lon="-1.06777" lat="50.94482">
<ele>81.0</ele>
</rtept>
<rtept lon="-1.06775" lat="50.94508">
<ele>81.3</ele>
</rtept>
<rtept lon="-1.06782" lat="50.94518">
<ele>81.5</ele>
</rtept>
<rtept lon="-1.06777" lat="50.94536">
<ele>81.7</ele>
</rtept>
<rtept lon="-1.06744" lat="50.94551">
<ele>81.6</ele>
</rtept>
<rtept lon="-1.06680" lat="50.94590">
<ele>82.5</ele>
</rtept>
<rtept lon="-1.06596" lat="50.94644">
<ele>83.8</ele>
</rtept>
<rtept lon="-1.06414" lat="50.94761">
<ele>87.7</ele>
</rtept>
<rtept lon="-1.06222" lat="50.94888">
<ele>88.8</ele>
</rtept>
<rtept lon="-1.06100" lat="50.94967">
<ele>90.7</ele>
</rtept>
<rtept lon="-1.06025" lat="50.95013">
<ele>91.7</ele>
</rtept>
<rtept lon="-1.06025" lat="50.95061">
<ele>93.9</ele>
</rtept>
<rtept lon="-1.05992" lat="50.95140">
<ele>98.8</ele>
</rtept>
<rtept lon="-1.05955" lat="50.95205">
<ele>101.8</ele>
</rtept>
<rtept lon="-1.05946" lat="50.95221">
<ele>102.4</ele>
</rtept>
<rtept lon="-1.05951" lat="50.95236">
<ele>103.0</ele>
</rtept>
<rtept lon="-1.05968" lat="50.95261">
<ele>104.3</ele>
</rtept>
<rtept lon="-1.05973" lat="50.95280">
<ele>105.2</ele>
</rtept>
<rtept lon="-1.05958" lat="50.95302">
<ele>106.2</ele>
</rtept>
<rtept lon="-1.05902" lat="50.95351">
<ele>108.6</ele>
</rtept>
<rtept lon="-1.05871" lat="50.95396">
<ele>109.7</ele>
</rtept>
<rtept lon="-1.05858" lat="50.95394">
<ele>110.1</ele>
</rtept>
<rtept lon="-1.05707" lat="50.95385">
<ele>109.3</ele>
</rtept>
<rtept lon="-1.05669" lat="50.95383">
<ele>108.9</ele>
</rtept>
<rtept lon="-1.05590" lat="50.95374">
<ele>107.5</ele>
</rtept>
<rtept lon="-1.05555" lat="50.95362">
<ele>105.6</ele>
</rtept>
<rtept lon="-1.05484" lat="50.95334">
<ele>101.4</ele>
</rtept>
<rtept lon="-1.05412" lat="50.95326">
<ele>99.0</ele>
</rtept>
<rtept lon="-1.05387" lat="50.95321">
<ele>98.1</ele>
</rtept>
<rtept lon="-1.05378" lat="50.95317">
<ele>97.7</ele>
</rtept>
<rtept lon="-1.05372" lat="50.95315">
<ele>97.4</ele>
</rtept>
<rtept lon="-1.05363" lat="50.95318">
<ele>97.6</ele>
</rtept>
<rtept lon="-1.05361" lat="50.95318">
<ele>97.6</ele>
</rtept>
<rtept lon="-1.05345" lat="50.95324">
<ele>98.0</ele>
</rtept>
<rtept lon="-1.05327" lat="50.95336">
<ele>98.6</ele>
</rtept>
<rtept lon="-1.05289" lat="50.95356">
<ele>100.2</ele>
</rtept>
<rtept lon="-1.05271" lat="50.95368">
<ele>100.4</ele>
</rtept>
<rtept lon="-1.05246" lat="50.95379">
<ele>101.1</ele>
</rtept>
<rtept lon="-1.05144" lat="50.95414">
<ele>106.0</ele>
</rtept>
<rtept lon="-1.05101" lat="50.95434">
<ele>107.8</ele>
</rtept>
<rtept lon="-1.05082" lat="50.95449">
<ele>109.1</ele>
</rtept>
<rtept lon="-1.05065" lat="50.95456">
<ele>109.8</ele>
</rtept>
<rtept lon="-1.05046" lat="50.95477">
<ele>111.1</ele>
</rtept>
<rtept lon="-1.05016" lat="50.95501">
<ele>113.3</ele>
</rtept>
<rtept lon="-1.04992" lat="50.95524">
<ele>115.0</ele>
</rtept>
<rtept lon="-1.04987" lat="50.95543">
<ele>116.3</ele>
</rtept>
<rtept lon="-1.04980" lat="50.95560">
<ele>117.5</ele>
</rtept>
<rtept lon="-1.04962" lat="50.95578">
<ele>118.9</ele>
</rtept>
<rtept lon="-1.04939" lat="50.95596">
<ele>120.3</ele>
</rtept>
<rtept lon="-1.04896" lat="50.95616">
<ele>121.6</ele>
</rtept>
<rtept lon="-1.04875" lat="50.95622">
<ele>122.6</ele>
</rtept>
<rtept lon="-1.04851" lat="50.95619">
<ele>123.3</ele>
</rtept>
<rtept lon="-1.04763" lat="50.95595">
<ele>127.7</ele>
</rtept>
<rtept lon="-1.04636" lat="50.95566">
<ele>131.8</ele>
</rtept>
<rtept lon="-1.04606" lat="50.95630">
<ele>135.2</ele>
</rtept>
<rtept lon="-1.04605" lat="50.95660">
<ele>137.0</ele>
</rtept>
<rtept lon="-1.04593" lat="50.95734">
<ele>140.7</ele>
</rtept>
<rtept lon="-1.04588" lat="50.95789">
<ele>143.5</ele>
</rtept>
<rtept lon="-1.04592" lat="50.95883">
<ele>148.8</ele>
</rtept>
<rtept lon="-1.04591" lat="50.95927">
<ele>151.3</ele>
</rtept>
<rtept lon="-1.04578" lat="50.95980">
<ele>155.4</ele>
</rtept>
<rtept lon="-1.04567" lat="50.96035">
<ele>158.8</ele>
</rtept>
<rtept lon="-1.04545" lat="50.96116">
<ele>162.9</ele>
</rtept>
<rtept lon="-1.04535" lat="50.96168">
<ele>166.2</ele>
</rtept>
<rtept lon="-1.04532" lat="50.96178">
<ele>166.7</ele>
</rtept>
<rtept lon="-1.04514" lat="50.96232">
<ele>169.2</ele>
</rtept>
<rtept lon="-1.04504" lat="50.96300">
<ele>174.0</ele>
</rtept>
<rtept lon="-1.04489" lat="50.96332">
<ele>175.4</ele>
</rtept>
<rtept lon="-1.04488" lat="50.96358">
<ele>176.6</ele>
</rtept>
<rtept lon="-1.04500" lat="50.96399">
<ele>178.5</ele>
</rtept>
<rtept lon="-1.04505" lat="50.96412">
<ele>179.3</ele>
</rtept>
<rtept lon="-1.04479" lat="50.96412">
<ele>180.2</ele>
</rtept>
<rtept lon="-1.04466" lat="50.96422">
<ele>180.8</ele>
</rtept>
<rtept lon="-1.04428" lat="50.96446">
<ele>182.8</ele>
</rtept>
<rtept lon="-1.04383" lat="50.96469">
<ele>184.4</ele>
</rtept>
<rtept lon="-1.04337" lat="50.96486">
<ele>186.4</ele>
</rtept>
<rtept lon="-1.04290" lat="50.96515">
<ele>187.2</ele>
</rtept>
<rtept lon="-1.04254" lat="50.96527">
<ele>188.3</ele>
</rtept>
<rtept lon="-1.04228" lat="50.96533">
<ele>187.8</ele>
</rtept>
<rtept lon="-1.04175" lat="50.96550">
<ele>188.7</ele>
</rtept>
<rtept lon="-1.04154" lat="50.96560">
<ele>188.9</ele>
</rtept>
<rtept lon="-1.04154" lat="50.96562">
<ele>189.0</ele>
</rtept>
<rtept lon="-1.04135" lat="50.96604">
<ele>192.3</ele>
</rtept>
<rtept lon="-1.04096" lat="50.96662">
<ele>197.3</ele>
</rtept>
<rtept lon="-1.04056" lat="50.96705">
<ele>200.8</ele>
</rtept>
<rtept lon="-1.04007" lat="50.96764">
<ele>205.4</ele>
</rtept>
<rtept lon="-1.03989" lat="50.96780">
<ele>206.5</ele>
</rtept>
<rtept lon="-1.03983" lat="50.96789">
<ele>207.1</ele>
</rtept>
<rtept lon="-1.03976" lat="50.96794">
<ele>207.4</ele>
</rtept>
<rtept lon="-1.03962" lat="50.96796">
<ele>207.9</ele>
</rtept>
<rtept lon="-1.03961" lat="50.96807">
<ele>208.5</ele>
</rtept>
<rtept lon="-1.03955" lat="50.96819">
<ele>209.2</ele>
</rtept>
<rtept lon="-1.03937" lat="50.96843">
<ele>210.1</ele>
</rtept>
<rtept lon="-1.03910" lat="50.96886">
<ele>211.0</ele>
</rtept>
<rtept lon="-1.03894" lat="50.96908">
<ele>210.8</ele>
</rtept>
<rtept lon="-1.03887" lat="50.96933">
<ele>212.3</ele>
</rtept>
<rtept lon="-1.03886" lat="50.96944">
<ele>212.7</ele>
</rtept>
<rtept lon="-1.03886" lat="50.96960">
<ele>213.1</ele>
</rtept>
<rtept lon="-1.03884" lat="50.97006">
<ele>214.9</ele>
</rtept>
<rtept lon="-1.03884" lat="50.97044">
<ele>217.0</ele>
</rtept>
<rtept lon="-1.03892" lat="50.97066">
<ele>217.6</ele>
</rtept>
<rtept lon="-1.03928" lat="50.97137">
<ele>221.0</ele>
</rtept>
<rtept lon="-1.03940" lat="50.97160">
<ele>223.0</ele>
</rtept>
<rtept lon="-1.03957" lat="50.97184">
<ele>225.2</ele>
</rtept>
<rtept lon="-1.04022" lat="50.97263">
<ele>227.8</ele>
</rtept>
<rtept lon="-1.04061" lat="50.97322">
<ele>230.6</ele>
</rtept>
<rtept lon="-1.04078" lat="50.97344">
<ele>231.0</ele>
</rtept>
<rtept lon="-1.04086" lat="50.97375">
<ele>232.0</ele>
</rtept>
<rtept lon="-1.04091" lat="50.97402">
<ele>232.4</ele>
</rtept>
<rtept lon="-1.04111" lat="50.97494">
<ele>230.9</ele>
</rtept>
<rtept lon="-1.04115" lat="50.97501">
<ele>230.7</ele>
</rtept>
<rtept lon="-1.04128" lat="50.97526">
<ele>230.2</ele>
</rtept>
<rtept lon="-1.04178" lat="50.97596">
<ele>228.9</ele>
</rtept>
<rtept lon="-1.04227" lat="50.97684">
<ele>228.0</ele>
</rtept>
<rtept lon="-1.04217" lat="50.97686">
<ele>227.6</ele>
</rtept>
<rtept lon="-1.04123" lat="50.97693">
<ele>220.2</ele>
</rtept>
<rtept lon="-1.04072" lat="50.97702">
<ele>219.4</ele>
</rtept>
<rtept lon="-1.04062" lat="50.97704">
<ele>219.3</ele>
</rtept>
<rtept lon="-1.03948" lat="50.97750">
<ele>226.3</ele>
</rtept>
<rtept lon="-1.03948" lat="50.97753">
<ele>226.2</ele>
</rtept>
<rtept lon="-1.03936" lat="50.97939">
<ele>217.5</ele>
</rtept>
<rtept lon="-1.03936" lat="50.97982">
<ele>216.5</ele>
</rtept>
<rtept lon="-1.03936" lat="50.97982">
<ele>216.5</ele>
</rtept>
<rtept lon="-1.03945" lat="50.98031">
<ele>216.7</ele>
</rtept>
<rtept lon="-1.03969" lat="50.98095">
<ele>216.3</ele>
</rtept>
<rtept lon="-1.03969" lat="50.98096">
<ele>216.3</ele>
</rtept>
<rtept lon="-1.03981" lat="50.98135">
<ele>216.7</ele>
</rtept>
<rtept lon="-1.03984" lat="50.98138">
<ele>216.7</ele>
</rtept>
<rtept lon="-1.04003" lat="50.98167">
<ele>215.6</ele>
</rtept>
<rtept lon="-1.04036" lat="50.98210">
<ele>216.9</ele>
</rtept>
<rtept lon="-1.04075" lat="50.98259">
<ele>216.4</ele>
</rtept>
<rtept lon="-1.04088" lat="50.98275">
<ele>215.6</ele>
</rtept>
<rtept lon="-1.04103" lat="50.98295">
<ele>214.1</ele>
</rtept>
<rtept lon="-1.04132" lat="50.98327">
<ele>210.9</ele>
</rtept>
<rtept lon="-1.04133" lat="50.98350">
<ele>207.3</ele>
</rtept>
<rtept lon="-1.04130" lat="50.98365">
<ele>205.6</ele>
</rtept>
<rtept lon="-1.04125" lat="50.98397">
<ele>203.0</ele>
</rtept>
<rtept lon="-1.04117" lat="50.98449">
<ele>196.2</ele>
</rtept>
<rtept lon="-1.04116" lat="50.98476">
<ele>189.5</ele>
</rtept>
<rtept lon="-1.04115" lat="50.98498">
<ele>186.4</ele>
</rtept>
<rtept lon="-1.04114" lat="50.98522">
<ele>182.3</ele>
</rtept>
<rtept lon="-1.04097" lat="50.98537">
<ele>178.1</ele>
</rtept>
<rtept lon="-1.03968" lat="50.98608">
<ele>151.7</ele>
</rtept>
<rtept lon="-1.03974" lat="50.98612">
<ele>151.4</ele>
</rtept>
<rtept lon="-1.03999" lat="50.98625">
<ele>146.3</ele>
</rtept>
<rtept lon="-1.04015" lat="50.98626">
<ele>143.4</ele>
</rtept>
<rtept lon="-1.04059" lat="50.98617">
<ele>138.7</ele>
</rtept>
<rtept lon="-1.04064" lat="50.98616">
<ele>138.2</ele>
</rtept>
<rtept lon="-1.04110" lat="50.98617">
<ele>136.1</ele>
</rtept>
<rtept lon="-1.04130" lat="50.98622">
<ele>137.3</ele>
</rtept>
<rtept lon="-1.04143" lat="50.98636">
<ele>140.2</ele>
</rtept>
<rtept lon="-1.04140" lat="50.98653">
<ele>138.7</ele>
</rtept>
<rtept lon="-1.04135" lat="50.98671">
<ele>139.2</ele>
</rtept>
<rtept lon="-1.04132" lat="50.98680">
<ele>139.7</ele>
</rtept>
<rtept lon="-1.04131" lat="50.98685">
<ele>140.0</ele>
</rtept>
<rtept lon="-1.04133" lat="50.98702">
<ele>140.8</ele>
</rtept>
<rtept lon="-1.04144" lat="50.98712">
<ele>140.0</ele>
</rtept>
<rtept lon="-1.04169" lat="50.98724">
<ele>138.6</ele>
</rtept>
<rtept lon="-1.04192" lat="50.98734">
<ele>137.8</ele>
</rtept>
<rtept lon="-1.04201" lat="50.98742">
<ele>138.4</ele>
</rtept>
<rtept lon="-1.04202" lat="50.98745">
<ele>138.5</ele>
</rtept>
<rtept lon="-1.04213" lat="50.98781">
<ele>133.3</ele>
</rtept>
<rtept lon="-1.04221" lat="50.98787">
<ele>131.5</ele>
</rtept>
<rtept lon="-1.04225" lat="50.98790">
<ele>130.3</ele>
</rtept>
<rtept lon="-1.04235" lat="50.98797">
<ele>128.0</ele>
</rtept>
<rtept lon="-1.04308" lat="50.98824">
<ele>124.1</ele>
</rtept>
<rtept lon="-1.04332" lat="50.98830">
<ele>120.4</ele>
</rtept>
<rtept lon="-1.04350" lat="50.98831">
<ele>120.6</ele>
</rtept>
<rtept lon="-1.04354" lat="50.98831">
<ele>120.6</ele>
</rtept>
<rtept lon="-1.04401" lat="50.98824">
<ele>126.6</ele>
</rtept>
<rtept lon="-1.04443" lat="50.98818">
<ele>125.7</ele>
</rtept>
<rtept lon="-1.04446" lat="50.98817">
<ele>125.5</ele>
</rtept>
<rtept lon="-1.04489" lat="50.98802">
<ele>126.3</ele>
</rtept>
<rtept lon="-1.04523" lat="50.98789">
<ele>127.1</ele>
</rtept>
<rtept lon="-1.04532" lat="50.98786">
<ele>126.4</ele>
</rtept>
<rtept lon="-1.04585" lat="50.98766">
<ele>128.1</ele>
</rtept>
<rtept lon="-1.04656" lat="50.98740">
<ele>127.7</ele>
</rtept>
<rtept lon="-1.04672" lat="50.98735">
<ele>126.8</ele>
</rtept>
<rtept lon="-1.04709" lat="50.98718">
<ele>130.5</ele>
</rtept>
<rtept lon="-1.04757" lat="50.98697">
<ele>129.8</ele>
</rtept>
<rtept lon="-1.04767" lat="50.98694">
<ele>129.4</ele>
</rtept>
<rtept lon="-1.04829" lat="50.98672">
<ele>130.8</ele>
</rtept>
<rtept lon="-1.04845" lat="50.98669">
<ele>131.0</ele>
</rtept>
<rtept lon="-1.04867" lat="50.98649">
<ele>130.9</ele>
</rtept>
<rtept lon="-1.04883" lat="50.98629">
<ele>130.3</ele>
</rtept>
<rtept lon="-1.04894" lat="50.98611">
<ele>129.9</ele>
</rtept>
<rtept lon="-1.04898" lat="50.98596">
<ele>130.5</ele>
</rtept>
<rtept lon="-1.04899" lat="50.98593">
<ele>130.6</ele>
</rtept>
<rtept lon="-1.04894" lat="50.98556">
<ele>130.8</ele>
</rtept>
<rtept lon="-1.04893" lat="50.98545">
<ele>130.8</ele>
</rtept>
<rtept lon="-1.04896" lat="50.98537">
<ele>130.9</ele>
</rtept>
<rtept lon="-1.04907" lat="50.98529">
<ele>131.1</ele>
</rtept>
<rtept lon="-1.04912" lat="50.98527">
<ele>131.3</ele>
</rtept>
<rtept lon="-1.04921" lat="50.98523">
<ele>132.1</ele>
</rtept>
<rtept lon="-1.04939" lat="50.98521">
<ele>133.6</ele>
</rtept>
<rtept lon="-1.04994" lat="50.98518">
<ele>136.8</ele>
</rtept>
<rtept lon="-1.05041" lat="50.98515">
<ele>140.1</ele>
</rtept>
<rtept lon="-1.05069" lat="50.98510">
<ele>142.0</ele>
</rtept>
<rtept lon="-1.05089" lat="50.98504">
<ele>143.5</ele>
</rtept>
<rtept lon="-1.05103" lat="50.98493">
<ele>145.5</ele>
</rtept>
<rtept lon="-1.05107" lat="50.98490">
<ele>146.1</ele>
</rtept>
<rtept lon="-1.05130" lat="50.98469">
<ele>148.6</ele>
</rtept>
<rtept lon="-1.05141" lat="50.98457">
<ele>149.0</ele>
</rtept>
<rtept lon="-1.05151" lat="50.98469">
<ele>148.8</ele>
</rtept>
<rtept lon="-1.05159" lat="50.98479">
<ele>148.5</ele>
</rtept>
<rtept lon="-1.05213" lat="50.98545">
<ele>147.2</ele>
</rtept>
<rtept lon="-1.05214" lat="50.98546">
<ele>147.2</ele>
</rtept>
<rtept lon="-1.05249" lat="50.98596">
<ele>146.2</ele>
</rtept>
<rtept lon="-1.05254" lat="50.98605">
<ele>145.8</ele>
</rtept>
<rtept lon="-1.05256" lat="50.98615">
<ele>145.4</ele>
</rtept>
<rtept lon="-1.05258" lat="50.98624">
<ele>145.2</ele>
</rtept>
<rtept lon="-1.05256" lat="50.98634">
<ele>145.0</ele>
</rtept>
<rtept lon="-1.05249" lat="50.98639">
<ele>144.9</ele>
</rtept>
<rtept lon="-1.05185" lat="50.98659">
<ele>143.0</ele>
</rtept>
<rtept lon="-1.05179" lat="50.98668">
<ele>142.7</ele>
</rtept>
<rtept lon="-1.05178" lat="50.98675">
<ele>142.5</ele>
</rtept>
<rtept lon="-1.05240" lat="50.98848">
<ele>136.4</ele>
</rtept>
<rtept lon="-1.05243" lat="50.98891">
<ele>134.5</ele>
</rtept>
<rtept lon="-1.05246" lat="50.98960">
<ele>133.2</ele>
</rtept>
<rtept lon="-1.05249" lat="50.99003">
<ele>133.3</ele>
</rtept>
<rtept lon="-1.05254" lat="50.99071">
<ele>133.5</ele>
</rtept>
<rtept lon="-1.05255" lat="50.99083">
<ele>134.2</ele>
</rtept>
<rtept lon="-1.05316" lat="50.99060">
<ele>139.5</ele>
</rtept>
<rtept lon="-1.05594" lat="50.98959">
<ele>142.4</ele>
</rtept>
<rtept lon="-1.05679" lat="50.98928">
<ele>138.9</ele>
</rtept>
<rtept lon="-1.05782" lat="50.98884">
<ele>131.5</ele>
</rtept>
<rtept lon="-1.06073" lat="50.98758">
<ele>115.9</ele>
</rtept>
<rtept lon="-1.06196" lat="50.98704">
<ele>112.4</ele>
</rtept>
<rtept lon="-1.06279" lat="50.98672">
<ele>110.8</ele>
</rtept>
<rtept lon="-1.06289" lat="50.98668">
<ele>110.7</ele>
</rtept>
<rtept lon="-1.06292" lat="50.98672">
<ele>110.7</ele>
</rtept>
<rtept lon="-1.06311" lat="50.98696">
<ele>110.6</ele>
</rtept>
<rtept lon="-1.06327" lat="50.98711">
<ele>110.6</ele>
</rtept>
<rtept lon="-1.06357" lat="50.98740">
<ele>110.7</ele>
</rtept>
<rtept lon="-1.06406" lat="50.98777">
<ele>110.5</ele>
</rtept>
<rtept lon="-1.06411" lat="50.98782">
<ele>110.4</ele>
</rtept>
<rtept lon="-1.06432" lat="50.98796">
<ele>110.1</ele>
</rtept>
<rtept lon="-1.06463" lat="50.98825">
<ele>110.2</ele>
</rtept>
<rtept lon="-1.06489" lat="50.98847">
<ele>110.3</ele>
</rtept>
<rtept lon="-1.06520" lat="50.98873">
<ele>110.2</ele>
</rtept>
<rtept lon="-1.06557" lat="50.98905">
<ele>110.0</ele>
</rtept>
<rtept lon="-1.06630" lat="50.98964">
<ele>109.2</ele>
</rtept>
<rtept lon="-1.06659" lat="50.98990">
<ele>108.8</ele>
</rtept>
<rtept lon="-1.06679" lat="50.99008">
<ele>108.6</ele>
</rtept>
<rtept lon="-1.06692" lat="50.99009">
<ele>108.2</ele>
</rtept>
<rtept lon="-1.06705" lat="50.99007">
<ele>107.8</ele>
</rtept>
<rtept lon="-1.06719" lat="50.99001">
<ele>107.2</ele>
</rtept>
<rtept lon="-1.06755" lat="50.98978">
<ele>105.7</ele>
</rtept>
<rtept lon="-1.06760" lat="50.98976">
<ele>105.5</ele>
</rtept>
<rtept lon="-1.06773" lat="50.98970">
<ele>105.4</ele>
</rtept>
<rtept lon="-1.06787" lat="50.98965">
<ele>105.6</ele>
</rtept>
<rtept lon="-1.06826" lat="50.98959">
<ele>106.5</ele>
</rtept>
<rtept lon="-1.06876" lat="50.98947">
<ele>107.5</ele>
</rtept>
<rtept lon="-1.06902" lat="50.98939">
<ele>107.9</ele>
</rtept>
<rtept lon="-1.06939" lat="50.98916">
<ele>109.0</ele>
</rtept>
<rtept lon="-1.06948" lat="50.98909">
<ele>109.3</ele>
</rtept>
<rtept lon="-1.06957" lat="50.98902">
<ele>109.7</ele>
</rtept>
<rtept lon="-1.06988" lat="50.98878">
<ele>110.4</ele>
</rtept>
<rtept lon="-1.06995" lat="50.98870">
<ele>110.5</ele>
</rtept>
<rtept lon="-1.06999" lat="50.98862">
<ele>110.5</ele>
</rtept>
<rtept lon="-1.06996" lat="50.98822">
<ele>111.1</ele>
</rtept>
<rtept lon="-1.07150" lat="50.98811">
<ele>108.5</ele>
</rtept>
<rtept lon="-1.07159" lat="50.98810">
<ele>108.6</ele>
</rtept>
<rtept lon="-1.07212" lat="50.98804">
<ele>109.4</ele>
</rtept>
<rtept lon="-1.07248" lat="50.98800">
<ele>110.2</ele>
</rtept>
<rtept lon="-1.07354" lat="50.98781">
<ele>113.3</ele>
</rtept>
<rtept lon="-1.07480" lat="50.98753">
<ele>119.0</ele>
</rtept>
<rtept lon="-1.07552" lat="50.98736">
<ele>125.1</ele>
</rtept>
<rtept lon="-1.07576" lat="50.98729">
<ele>127.9</ele>
</rtept>
<rtept lon="-1.07579" lat="50.98730">
<ele>128.3</ele>
</rtept>
<rtept lon="-1.07581" lat="50.98727">
<ele>128.5</ele>
</rtept>
<rtept lon="-1.07594" lat="50.98734">
<ele>129.1</ele>
</rtept>
<rtept lon="-1.07596" lat="50.98735">
<ele>129.2</ele>
</rtept>
<rtept lon="-1.07610" lat="50.98743">
<ele>130.3</ele>
</rtept>
<rtept lon="-1.07638" lat="50.98755">
<ele>133.1</ele>
</rtept>
<rtept lon="-1.07670" lat="50.98765">
<ele>137.3</ele>
</rtept>
<rtept lon="-1.07701" lat="50.98779">
<ele>141.1</ele>
</rtept>
<rtept lon="-1.07733" lat="50.98793">
<ele>144.7</ele>
</rtept>
<rtept lon="-1.07734" lat="50.98794">
<ele>144.8</ele>
</rtept>
<rtept lon="-1.07782" lat="50.98825">
<ele>148.7</ele>
</rtept>
<rtept lon="-1.07824" lat="50.98847">
<ele>152.1</ele>
</rtept>
<rtept lon="-1.07859" lat="50.98867">
<ele>154.4</ele>
</rtept>
<rtept lon="-1.07932" lat="50.98909">
<ele>159.4</ele>
</rtept>
<rtept lon="-1.07978" lat="50.98936">
<ele>163.1</ele>
</rtept>
<rtept lon="-1.08203" lat="50.99060">
<ele>183.4</ele>
</rtept>
<rtept lon="-1.08213" lat="50.99065">
<ele>184.1</ele>
</rtept>
<rtept lon="-1.08222" lat="50.99068">
<ele>184.6</ele>
</rtept>
<rtept lon="-1.08222" lat="50.99068">
<ele>184.6</ele>
</rtept>
<rtept lon="-1.08233" lat="50.99066">
<ele>185.1</ele>
</rtept>
<rtept lon="-1.08239" lat="50.99071">
<ele>185.5</ele>
</rtept>
<rtept lon="-1.08249" lat="50.99073">
<ele>185.5</ele>
</rtept>
<rtept lon="-1.08243" lat="50.99066">
<ele>185.5</ele>
</rtept>
<rtept lon="-1.08229" lat="50.99049">
<ele>185.5</ele>
</rtept>
<rtept lon="-1.08217" lat="50.99029">
<ele>185.7</ele>
</rtept>
<rtept lon="-1.08201" lat="50.99002">
<ele>186.0</ele>
</rtept>
<rtept lon="-1.08189" lat="50.98983">
<ele>186.0</ele>
</rtept>
<rtept lon="-1.08174" lat="50.98964">
<ele>185.8</ele>
</rtept>
<rtept lon="-1.08131" lat="50.98922">
<ele>185.4</ele>
</rtept>
<rtept lon="-1.08126" lat="50.98917">
<ele>185.4</ele>
</rtept>
<rtept lon="-1.08088" lat="50.98874">
<ele>186.0</ele>
</rtept>
<rtept lon="-1.08067" lat="50.98842">
<ele>186.9</ele>
</rtept>
<rtept lon="-1.08055" lat="50.98822">
<ele>187.7</ele>
</rtept>
<rtept lon="-1.08040" lat="50.98797">
<ele>189.7</ele>
</rtept>
<rtept lon="-1.08057" lat="50.98791">
<ele>190.1</ele>
</rtept>
<rtept lon="-1.08030" lat="50.98755">
<ele>191.3</ele>
</rtept>
<rtept lon="-1.08015" lat="50.98732">
<ele>192.3</ele>
</rtept>
<rtept lon="-1.07993" lat="50.98700">
<ele>193.7</ele>
</rtept>
<rtept lon="-1.07968" lat="50.98668">
<ele>195.1</ele>
</rtept>
<rtept lon="-1.07942" lat="50.98629">
<ele>197.1</ele>
</rtept>
<rtept lon="-1.07932" lat="50.98599">
<ele>198.5</ele>
</rtept>
<rtept lon="-1.07913" lat="50.98581">
<ele>199.3</ele>
</rtept>
<rtept lon="-1.07900" lat="50.98572">
<ele>199.8</ele>
</rtept>
<rtept lon="-1.07872" lat="50.98528">
<ele>201.9</ele>
</rtept>
<rtept lon="-1.07868" lat="50.98520">
<ele>202.1</ele>
</rtept>
<rtept lon="-1.07868" lat="50.98503">
<ele>202.6</ele>
</rtept>
<rtept lon="-1.07850" lat="50.98442">
<ele>203.5</ele>
</rtept>
<rtept lon="-1.07852" lat="50.98426">
<ele>203.3</ele>
</rtept>
<rtept lon="-1.07838" lat="50.98386">
<ele>202.9</ele>
</rtept>
<rtept lon="-1.07843" lat="50.98347">
<ele>204.7</ele>
</rtept>
<rtept lon="-1.07850" lat="50.98345">
<ele>204.9</ele>
</rtept>
<rtept lon="-1.07855" lat="50.98342">
<ele>205.1</ele>
</rtept>
<rtept lon="-1.07873" lat="50.98324">
<ele>206.1</ele>
</rtept>
<rtept lon="-1.07889" lat="50.98306">
<ele>207.0</ele>
</rtept>
<rtept lon="-1.07897" lat="50.98296">
<ele>207.5</ele>
</rtept>
<rtept lon="-1.07910" lat="50.98285">
<ele>207.9</ele>
</rtept>
<rtept lon="-1.07925" lat="50.98277">
<ele>208.1</ele>
</rtept>
<rtept lon="-1.07939" lat="50.98270">
<ele>208.3</ele>
</rtept>
<rtept lon="-1.08019" lat="50.98246">
<ele>207.8</ele>
</rtept>
<rtept lon="-1.08040" lat="50.98240">
<ele>207.4</ele>
</rtept>
<rtept lon="-1.08079" lat="50.98229">
<ele>206.0</ele>
</rtept>
<rtept lon="-1.08115" lat="50.98222">
<ele>204.8</ele>
</rtept>
<rtept lon="-1.08127" lat="50.98218">
<ele>204.7</ele>
</rtept>
<rtept lon="-1.08133" lat="50.98214">
<ele>204.7</ele>
</rtept>
<rtept lon="-1.08155" lat="50.98182">
<ele>204.1</ele>
</rtept>
<rtept lon="-1.08160" lat="50.98172">
<ele>203.8</ele>
</rtept>
<rtept lon="-1.08207" lat="50.98123">
<ele>202.3</ele>
</rtept>
<rtept lon="-1.08238" lat="50.98090">
<ele>201.7</ele>
</rtept>
<rtept lon="-1.08284" lat="50.98052">
<ele>201.1</ele>
</rtept>
<rtept lon="-1.08295" lat="50.98044">
<ele>200.7</ele>
</rtept>
<rtept lon="-1.08301" lat="50.98041">
<ele>200.4</ele>
</rtept>
<rtept lon="-1.08309" lat="50.98038">
<ele>200.1</ele>
</rtept>
<rtept lon="-1.08321" lat="50.98035">
<ele>199.7</ele>
</rtept>
<rtept lon="-1.08349" lat="50.98031">
<ele>198.4</ele>
</rtept>
<rtept lon="-1.08366" lat="50.98031">
<ele>197.6</ele>
</rtept>
<rtept lon="-1.08391" lat="50.98034">
<ele>196.2</ele>
</rtept>
<rtept lon="-1.08441" lat="50.98044">
<ele>194.2</ele>
</rtept>
<rtept lon="-1.08469" lat="50.98051">
<ele>193.8</ele>
</rtept>
<rtept lon="-1.08474" lat="50.98054">
<ele>194.1</ele>
</rtept>
<rtept lon="-1.08478" lat="50.98054">
<ele>194.2</ele>
</rtept>
<rtept lon="-1.08508" lat="50.98040">
<ele>194.5</ele>
</rtept>
<rtept lon="-1.08509" lat="50.98025">
<ele>193.9</ele>
</rtept>
<rtept lon="-1.08514" lat="50.98016">
<ele>193.1</ele>
</rtept>
<rtept lon="-1.08522" lat="50.98008">
<ele>192.2</ele>
</rtept>
<rtept lon="-1.08530" lat="50.98000">
<ele>191.4</ele>
</rtept>
<rtept lon="-1.08544" lat="50.97993">
<ele>190.4</ele>
</rtept>
<rtept lon="-1.08563" lat="50.97988">
<ele>189.4</ele>
</rtept>
<rtept lon="-1.08577" lat="50.97985">
<ele>188.8</ele>
</rtept>
<rtept lon="-1.08607" lat="50.97983">
<ele>185.1</ele>
</rtept>
<rtept lon="-1.08619" lat="50.97981">
<ele>183.5</ele>
</rtept>
<rtept lon="-1.08644" lat="50.97883">
<ele>161.4</ele>
</rtept>
<rtept lon="-1.08655" lat="50.97836">
<ele>150.8</ele>
</rtept>
<rtept lon="-1.08660" lat="50.97814">
<ele>148.9</ele>
</rtept>
<rtept lon="-1.08764" lat="50.97841">
<ele>146.7</ele>
</rtept>
<rtept lon="-1.08911" lat="50.97879">
<ele>141.7</ele>
</rtept>
<rtept lon="-1.08952" lat="50.97889">
<ele>136.8</ele>
</rtept>
<rtept lon="-1.08956" lat="50.97870">
<ele>133.9</ele>
</rtept>
<rtept lon="-1.08963" lat="50.97842">
<ele>129.9</ele>
</rtept>
<rtept lon="-1.08981" lat="50.97765">
<ele>121.0</ele>
</rtept>
<rtept lon="-1.08994" lat="50.97716">
<ele>115.2</ele>
</rtept>
<rtept lon="-1.08999" lat="50.97701">
<ele>113.2</ele>
</rtept>
<rtept lon="-1.09023" lat="50.97663">
<ele>108.9</ele>
</rtept>
<rtept lon="-1.09037" lat="50.97641">
<ele>108.2</ele>
</rtept>
<rtept lon="-1.09076" lat="50.97589">
<ele>108.6</ele>
</rtept>
<rtept lon="-1.09092" lat="50.97571">
<ele>108.3</ele>
</rtept>
<rtept lon="-1.09111" lat="50.97548">
<ele>107.3</ele>
</rtept>
<rtept lon="-1.09118" lat="50.97542">
<ele>106.9</ele>
</rtept>
<rtept lon="-1.09134" lat="50.97529">
<ele>106.1</ele>
</rtept>
<rtept lon="-1.09137" lat="50.97527">
<ele>105.9</ele>
</rtept>
<rtept lon="-1.09149" lat="50.97519">
<ele>105.3</ele>
</rtept>
<rtept lon="-1.09160" lat="50.97509">
<ele>104.7</ele>
</rtept>
<rtept lon="-1.09176" lat="50.97494">
<ele>103.8</ele>
</rtept>
<rtept lon="-1.09204" lat="50.97465">
<ele>101.9</ele>
</rtept>
<rtept lon="-1.09248" lat="50.97420">
<ele>98.7</ele>
</rtept>
<rtept lon="-1.09271" lat="50.97396">
<ele>97.2</ele>
</rtept>
<rtept lon="-1.09304" lat="50.97359">
<ele>96.5</ele>
</rtept>
<rtept lon="-1.09336" lat="50.97327">
<ele>97.0</ele>
</rtept>
<rtept lon="-1.09346" lat="50.97316">
<ele>97.2</ele>
</rtept>
<rtept lon="-1.09371" lat="50.97286">
<ele>96.9</ele>
</rtept>
<rtept lon="-1.09395" lat="50.97265">
<ele>96.0</ele>
</rtept>
<rtept lon="-1.09423" lat="50.97243">
<ele>94.7</ele>
</rtept>
<rtept lon="-1.09437" lat="50.97232">
<ele>94.0</ele>
</rtept>
<rtept lon="-1.09475" lat="50.97196">
<ele>91.0</ele>
</rtept>
<rtept lon="-1.09505" lat="50.97171">
<ele>89.2</ele>
</rtept>
<rtept lon="-1.09505" lat="50.97171">
<ele>89.2</ele>
</rtept>
<rtept lon="-1.09528" lat="50.97156">
<ele>88.9</ele>
</rtept>
<rtept lon="-1.09558" lat="50.97142">
<ele>89.9</ele>
</rtept>
<rtept lon="-1.09612" lat="50.97117">
<ele>92.1</ele>
</rtept>
<rtept lon="-1.09613" lat="50.97116">
<ele>92.1</ele>
</rtept>
<rtept lon="-1.09645" lat="50.97097">
<ele>93.0</ele>
</rtept>
<rtept lon="-1.09677" lat="50.97080">
<ele>94.8</ele>
</rtept>
<rtept lon="-1.09676" lat="50.97076">
<ele>95.1</ele>
</rtept>
<rtept lon="-1.09668" lat="50.97062">
<ele>96.3</ele>
</rtept>
<rtept lon="-1.09622" lat="50.96978">
<ele>106.0</ele>
</rtept>
<rtept lon="-1.09577" lat="50.96895">
<ele>116.3</ele>
</rtept>
<rtept lon="-1.09562" lat="50.96867">
<ele>119.3</ele>
</rtept>
<rtept lon="-1.09537" lat="50.96828">
<ele>123.1</ele>
</rtept>
<rtept lon="-1.09491" lat="50.96757">
<ele>128.5</ele>
</rtept>
<rtept lon="-1.09447" lat="50.96688">
<ele>135.9</ele>
</rtept>
<rtept lon="-1.09447" lat="50.96687">
<ele>135.9</ele>
</rtept>
<rtept lon="-1.09442" lat="50.96662">
<ele>138.4</ele>
</rtept>
<rtept lon="-1.09446" lat="50.96625">
<ele>141.3</ele>
</rtept>
<rtept lon="-1.09451" lat="50.96563">
<ele>143.8</ele>
</rtept>
<rtept lon="-1.09453" lat="50.96549">
<ele>144.0</ele>
</rtept>
<rtept lon="-1.09466" lat="50.96463">
<ele>144.0</ele>
</rtept>
<rtept lon="-1.09451" lat="50.96458">
<ele>144.2</ele>
</rtept>
<rtept lon="-1.09276" lat="50.96398">
<ele>143.7</ele>
</rtept>
<rtept lon="-1.09260" lat="50.96392">
<ele>143.5</ele>
</rtept>
<rtept lon="-1.09172" lat="50.96361">
<ele>141.5</ele>
</rtept>
<rtept lon="-1.09038" lat="50.96315">
<ele>137.0</ele>
</rtept>
<rtept lon="-1.08986" lat="50.96297">
<ele>135.1</ele>
</rtept>
<rtept lon="-1.08916" lat="50.96276">
<ele>132.5</ele>
</rtept>
<rtept lon="-1.08916" lat="50.96276">
<ele>132.5</ele>
</rtept>
<rtept lon="-1.08760" lat="50.96271">
<ele>125.2</ele>
</rtept>
<rtept lon="-1.08738" lat="50.96271">
<ele>123.7</ele>
</rtept>
<rtept lon="-1.08640" lat="50.96267">
<ele>115.6</ele>
</rtept>
<rtept lon="-1.08606" lat="50.96266">
<ele>112.7</ele>
</rtept>
<rtept lon="-1.08500" lat="50.96253">
<ele>108.9</ele>
</rtept>
<rtept lon="-1.08420" lat="50.96231">
<ele>113.2</ele>
</rtept>
<rtept lon="-1.08258" lat="50.96223">
<ele>121.7</ele>
</rtept>
<rtept lon="-1.08128" lat="50.96193">
<ele>124.3</ele>
</rtept>
<rtept lon="-1.08123" lat="50.96192">
<ele>124.3</ele>
</rtept>
<rtept lon="-1.07993" lat="50.96167">
<ele>123.9</ele>
</rtept>
<rtept lon="-1.07925" lat="50.96145">
<ele>123.2</ele>
</rtept>
<rtept lon="-1.07857" lat="50.96125">
<ele>121.9</ele>
</rtept>
<rtept lon="-1.07856" lat="50.96125">
<ele>121.8</ele>
</rtept>
<rtept lon="-1.07841" lat="50.96115">
<ele>121.0</ele>
</rtept>
<rtept lon="-1.07845" lat="50.96098">
<ele>120.0</ele>
</rtept>
<rtept lon="-1.07851" lat="50.96068">
<ele>118.3</ele>
</rtept>
<rtept lon="-1.07853" lat="50.96056">
<ele>117.7</ele>
</rtept>
<rtept lon="-1.07810" lat="50.96023">
<ele>115.6</ele>
</rtept>
<rtept lon="-1.07781" lat="50.95985">
<ele>113.2</ele>
</rtept>
<rtept lon="-1.07776" lat="50.95979">
<ele>112.8</ele>
</rtept>
<rtept lon="-1.07745" lat="50.95932">
<ele>109.7</ele>
</rtept>
<rtept lon="-1.07740" lat="50.95900">
<ele>107.8</ele>
</rtept>
<rtept lon="-1.07726" lat="50.95861">
<ele>105.6</ele>
</rtept>
<rtept lon="-1.07704" lat="50.95829">
<ele>103.1</ele>
</rtept>
<rtept lon="-1.07658" lat="50.95801">
<ele>101.2</ele>
</rtept>
<rtept lon="-1.07618" lat="50.95782">
<ele>98.4</ele>
</rtept>
<rtept lon="-1.07581" lat="50.95772">
<ele>98.5</ele>
</rtept>
<rtept lon="-1.07525" lat="50.95753">
<ele>100.3</ele>
</rtept>
<rtept lon="-1.07437" lat="50.95713">
<ele>105.9</ele>
</rtept>
<rtept lon="-1.07392" lat="50.95697">
<ele>108.2</ele>
</rtept>
<rtept lon="-1.07275" lat="50.95678">
<ele>112.8</ele>
</rtept>
<rtept lon="-1.07179" lat="50.95654">
<ele>115.6</ele>
</rtept>
<rtept lon="-1.07166" lat="50.95651">
<ele>116.0</ele>
</rtept>
<rtept lon="-1.07076" lat="50.95646">
<ele>117.4</ele>
</rtept>
<rtept lon="-1.06986" lat="50.95614">
<ele>117.2</ele>
</rtept>
<rtept lon="-1.06968" lat="50.95607">
<ele>116.9</ele>
</rtept>
<rtept lon="-1.06951" lat="50.95596">
<ele>116.3</ele>
</rtept>
<rtept lon="-1.06937" lat="50.95584">
<ele>116.0</ele>
</rtept>
<rtept lon="-1.06926" lat="50.95575">
<ele>115.9</ele>
</rtept>
<rtept lon="-1.06871" lat="50.95545">
<ele>113.4</ele>
</rtept>
<rtept lon="-1.06797" lat="50.95519">
<ele>110.6</ele>
</rtept>
<rtept lon="-1.06808" lat="50.95509">
<ele>111.1</ele>
</rtept>
<rtept lon="-1.06825" lat="50.95504">
<ele>111.5</ele>
</rtept>
<rtept lon="-1.06853" lat="50.95505">
<ele>112.0</ele>
</rtept>
<rtept lon="-1.06889" lat="50.95503">
<ele>112.8</ele>
</rtept>
<rtept lon="-1.06906" lat="50.95499">
<ele>112.9</ele>
</rtept>
<rtept lon="-1.06923" lat="50.95499">
<ele>113.1</ele>
</rtept>
<rtept lon="-1.06966" lat="50.95499">
<ele>113.0</ele>
</rtept>
<rtept lon="-1.07000" lat="50.95495">
<ele>112.1</ele>
</rtept>
<rtept lon="-1.07019" lat="50.95493">
<ele>111.5</ele>
</rtept>
<rtept lon="-1.07025" lat="50.95484">
<ele>111.0</ele>
</rtept>
<rtept lon="-1.07031" lat="50.95449">
<ele>109.3</ele>
</rtept>
<rtept lon="-1.07038" lat="50.95422">
<ele>108.0</ele>
</rtept>
<rtept lon="-1.07044" lat="50.95402">
<ele>107.3</ele>
</rtept>
<rtept lon="-1.07061" lat="50.95378">
<ele>106.1</ele>
</rtept>
<rtept lon="-1.07089" lat="50.95349">
<ele>105.0</ele>
</rtept>
<rtept lon="-1.07093" lat="50.95345">
<ele>104.9</ele>
</rtept>
<rtept lon="-1.07137" lat="50.95302">
<ele>103.5</ele>
</rtept>
<rtept lon="-1.07203" lat="50.95248">
<ele>103.0</ele>
</rtept>
<rtept lon="-1.07255" lat="50.95201">
<ele>101.7</ele>
</rtept>
<rtept lon="-1.07282" lat="50.95176">
<ele>101.4</ele>
</rtept>
<rtept lon="-1.07305" lat="50.95141">
<ele>100.0</ele>
</rtept>
<rtept lon="-1.07316" lat="50.95120">
<ele>99.5</ele>
</rtept>
<rtept lon="-1.07346" lat="50.95088">
<ele>98.5</ele>
</rtept>
<rtept lon="-1.07389" lat="50.95047">
<ele>97.5</ele>
</rtept>
<rtept lon="-1.07461" lat="50.94977">
<ele>97.7</ele>
</rtept>
<rtept lon="-1.07459" lat="50.94967">
<ele>97.9</ele>
</rtept>
<rtept lon="-1.07479" lat="50.94907">
<ele>97.1</ele>
</rtept>
<rtept lon="-1.07501" lat="50.94852">
<ele>97.0</ele>
</rtept>
<rtept lon="-1.07523" lat="50.94796">
<ele>95.5</ele>
</rtept>
<rtept lon="-1.07527" lat="50.94785">
<ele>95.2</ele>
</rtept>
<rtept lon="-1.07530" lat="50.94755">
<ele>95.1</ele>
</rtept>
<rtept lon="-1.07542" lat="50.94709">
<ele>93.6</ele>
</rtept>
<rtept lon="-1.07557" lat="50.94685">
<ele>93.2</ele>
</rtept>
<rtept lon="-1.07562" lat="50.94664">
<ele>93.1</ele>
</rtept>
<rtept lon="-1.07568" lat="50.94654">
<ele>92.8</ele>
</rtept>
<rtept lon="-1.07691" lat="50.94626">
<ele>93.2</ele>
</rtept>
<rtept lon="-1.07690" lat="50.94619">
<ele>93.1</ele>
</rtept>
<rtept lon="-1.07697" lat="50.94587">
<ele>92.4</ele>
</rtept>
<rtept lon="-1.07713" lat="50.94513">
<ele>91.1</ele>
</rtept>
<rtept lon="-1.07715" lat="50.94502">
<ele>90.9</ele>
</rtept>
<rtept lon="-1.07733" lat="50.94421">
<ele>90.5</ele>
</rtept>
<rtept lon="-1.07742" lat="50.94386">
<ele>90.4</ele>
</rtept>
<rtept lon="-1.07753" lat="50.94364">
<ele>90.0</ele>
</rtept>
<rtept lon="-1.07748" lat="50.94359">
<ele>89.9</ele>
</rtept>
<rtept lon="-1.07703" lat="50.94348">
<ele>88.3</ele>
</rtept>
<rtept lon="-1.07657" lat="50.94339">
<ele>86.2</ele>
</rtept>
<rtept lon="-1.07615" lat="50.94329">
<ele>83.7</ele>
</rtept>
<rtept lon="-1.07587" lat="50.94324">
<ele>81.7</ele>
</rtept>
<rtept lon="-1.07538" lat="50.94314">
<ele>78.5</ele>
</rtept>
<rtept lon="-1.07468" lat="50.94302">
<ele>73.7</ele>
</rtept>
<rtept lon="-1.07464" lat="50.94187">
<ele>75.4</ele>
</rtept>
<rtept lon="-1.07622" lat="50.94218">
<ele>88.9</ele>
</rtept>
<rtept lon="-1.07619" lat="50.94180">
<ele>90.7</ele>
</rtept>
<rtept lon="-1.07610" lat="50.94080">
<ele>92.0</ele>
</rtept>
<rtept lon="-1.07600" lat="50.93962">
<ele>89.6</ele>
</rtept>
<rtept lon="-1.07630" lat="50.93921">
<ele>92.3</ele>
</rtept>
<rtept lon="-1.07689" lat="50.93882">
<ele>95.0</ele>
</rtept>
<rtept lon="-1.07741" lat="50.93848">
<ele>98.4</ele>
</rtept>
<rtept lon="-1.07790" lat="50.93830">
<ele>100.7</ele>
</rtept>
<rtept lon="-1.07887" lat="50.93799">
<ele>102.2</ele>
</rtept>
<rtept lon="-1.07952" lat="50.93768">
<ele>103.8</ele>
</rtept>
<rtept lon="-1.08013" lat="50.93787">
<ele>103.8</ele>
</rtept>

</rte>
</gpx>
